COMMENT,ORIGINATOR,NORAD_CAT_ID,OBJECT_NAME,OBJECT_TYPE,CLASSIFICATION_TYPE,INTLDES,EPOCH,EPOCH_MICROSECONDS,MEAN_MOTION,ECCENTRICITY,INCLINATION,RA_OF_ASC_NODE,ARG_OF_PERICENTER,MEAN_ANOMALY,EPHEMERIS_TYPE,ELEMENT_SET_NO,REV_AT_EPOCH,BSTAR,MEAN_MOTION_DOT,MEAN_MOTION_DDOT,FILE,TLE_LINE0,TLE_LINE1,TLE_LINE2,OBJECT_ID,OBJECT_NUMBER,SEMIMAJOR_AXIS,PERIOD,APOGEE,PERIGEE,DECAYED,date
GENERATED VIA SPACETRACK.ORG API,18 SPCS,46301,SPACEBEE-20,PAYLOAD,U,20061AF,2023/2/8 4:48,505312,15.33831098,0.0000559,97.4264,114.7199,295.3623,64.7561,0,999,13444,0.0026219,0.00086592,0,3779043,0 SPACEBEE-20,1 46301U 20061AF  23039.20023733  .00086592  00000-0  26219-2 0  9992,2 46301  97.4264 114.7199 0000559 295.3623  64.7561 15.33831098134445,2020-061AF,46301,6842.532,93.883,464.779,464.014,1,2023/4/3
GENERATED VIA SPACETRACK.ORG API,18 SPCS,46301,SPACEBEE-20,PAYLOAD,U,20061AF,2023/2/8 4:48,505312,15.33831098,0.0000559,97.4264,114.7199,295.3623,64.7561,0,999,13444,0.0026219,0.00086592,0,3780324,0 SPACEBEE-20,1 46301U 20061AF  23039.20023733  .00086592  00000-0  26219-2 0  9992,2 46301  97.4264 114.7199 0000559 295.3623  64.7561 15.33831098134445,2020-061AF,46301,6842.532,93.883,464.779,464.014,1,2023/4/4
GENERATED VIA SPACETRACK.ORG API,18 SPCS,46301,SPACEBEE-20,PAYLOAD,U,20061AF,2023/2/8 17:19,937824,15.33928082,0.0000559,97.4258,115.2449,296.0969,64.0216,0,999,13452,0.0030021,0.00099636,0,3780893,0 SPACEBEE-20,1 46301U 20061AF  23039.72212891  .00099636  00000-0  30021-2 0  9993,2 46301  97.4258 115.2449 0000559 296.0969  64.0216 15.33928082134522,2020-061AF,46301,6842.243,93.877,464.491,463.726,1,2023/4/5
GENERATED VIA SPACETRACK.ORG API,18 SPCS,46301,SPACEBEE-20,PAYLOAD,U,20061AF,2023/2/9 4:17,381024,15.34024074,0.0000594,97.4257,115.7037,288.383,71.7348,0,999,13459,0.0029881,0.00099469,0,3781610,0 SPACEBEE-20,1 46301U 20061AF  23040.17875441  .00099469  00000-0  29881-2 0  9996,2 46301  97.4257 115.7037 0000594 288.3830  71.7348 15.34024074134596,2020-061AF,46301,6841.958,93.871,464.229,463.416,1,2023/4/6
GENERATED VIA SPACETRACK.ORG API,18 SPCS,46301,SPACEBEE-20,PAYLOAD,U,20061AF,2023/2/9 4:17,381024,15.34024074,0.0000594,97.4257,115.7037,288.383,71.7348,0,999,13459,0.0029881,0.00099469,0,3782313,0 SPACEBEE-20,1 46301U 20061AF  23040.17875441  .00099469  00000-0  29881-2 0  9996,2 46301  97.4257 115.7037 0000594 288.3830  71.7348 15.34024074134596,2020-061AF,46301,6841.958,93.871,464.229,463.416,1,2023/4/7
GENERATED VIA SPACETRACK.ORG API,18 SPCS,46301,SPACEBEE-20,PAYLOAD,U,20061AF,2023/2/9 18:22,751584,15.34130241,0.0000651,97.4254,116.2944,291.6153,68.5021,0,999,13468,0.0030209,0.00100918,0,3783241,0 SPACEBEE-20,1 46301U 20061AF  23040.76580731  .00100918  00000-0  30209-2 0  9994,2 46301  97.4254 116.2944 0000651 291.6153  68.5021 15.34130241134681,2020-061AF,46301,6841.642,93.864,463.953,463.062,1,2023/4/8
GENERATED VIA SPACETRACK.ORG API,18 SPCS,46301,SPACEBEE-20,PAYLOAD,U,20061AF,2023/2/9 18:22,751584,15.34130241,0.0000651,97.4254,116.2944,291.6153,68.5021,0,999,13468,0.0030209,0.00100918,0,3783372,0 SPACEBEE-20,1 46301U 20061AF  23040.76580731  .00100918  00000-0  30209-2 0  9994,2 46301  97.4254 116.2944 0000651 291.6153  68.5021 15.34130241134681,2020-061AF,46301,6841.642,93.864,463.953,463.062,1,2023/4/9
GENERATED VIA SPACETRACK.ORG API,18 SPCS,46301,SPACEBEE-20,PAYLOAD,U,20061AF,2023/2/10 3:46,743584,15.34217497,0.0000861,97.4256,116.6875,303.2342,56.8818,0,999,13474,0.0031982,0.0010723,0,3784184,0 SPACEBEE-20,1 46301U 20061AF  23041.15714981  .00107230  00000-0  31982-2 0  9997,2 46301  97.4256 116.6875 0000861 303.2342  56.8818 15.34217497134743,2020-061AF,46301,6841.383,93.859,463.837,462.659,1,2023/4/10
GENERATED VIA SPACETRACK.ORG API,18 SPCS,46301,SPACEBEE-20,PAYLOAD,U,20061AF,2023/2/10 3:46,743584,15.34217497,0.0000861,97.4256,116.6875,303.2342,56.8818,0,999,13474,0.0031982,0.0010723,0,3784402,0 SPACEBEE-20,1 46301U 20061AF  23041.15714981  .00107230  00000-0  31982-2 0  9997,2 46301  97.4256 116.6875 0000861 303.2342  56.8818 15.34217497134743,2020-061AF,46301,6841.383,93.859,463.837,462.659,1,2023/4/11
GENERATED VIA SPACETRACK.ORG API,18 SPCS,46301,SPACEBEE-20,PAYLOAD,U,20061AF,2023/2/10 16:17,393728,15.34334404,0.0001015,97.4257,117.2132,309.6017,50.5136,0,999,13482,0.0031453,0.00105826,0,3785071,0 SPACEBEE-20,1 46301U 20061AF  23041.67890502  .00105826  00000-0  31453-2 0  9990,2 46301  97.4257 117.2132 0001015 309.6017  50.5136 15.34334404134829,2020-061AF,46301,6841.035,93.852,463.595,462.206,1,2023/4/12
GENERATED VIA SPACETRACK.ORG API,18 SPCS,46301,SPACEBEE-20,PAYLOAD,U,20061AF,2023/2/10 22:33,905088,15.34393249,0.0000867,97.4253,117.4751,298.0838,62.0317,0,999,13486,0.0031891,0.00107524,0,3785297,0 SPACEBEE-20,1 46301U 20061AF  23041.93976742  .00107524  00000-0  31891-2 0  9993,2 46301  97.4253 117.4751 0000867 298.0838  62.0317 15.34393249134865,2020-061AF,46301,6840.86,93.848,463.318,462.132,1,2023/4/13
GENERATED VIA SPACETRACK.ORG API,18 SPCS,46301,SPACEBEE-20,PAYLOAD,U,20061AF,2023/2/11 4:48,518752,15.34458907,0.000083,97.4253,117.7376,296.4592,63.6565,0,999,13490,0.0031803,0.00107449,0,3786144,0 SPACEBEE-20,1 46301U 20061AF  23042.20061943  .00107449  00000-0  31803-2 0  9991,2 46301  97.4253 117.7376 0000830 296.4592  63.6565 15.34458907134900,2020-061AF,46301,6840.665,93.844,463.098,461.962,1,2023/4/14
GENERATED VIA SPACETRACK.ORG API,18 SPCS,46301,SPACEBEE-20,PAYLOAD,U,20061AF,2023/2/11 4:48,518752,15.34458907,0.000083,97.4253,117.7376,296.4592,63.6565,0,999,13490,0.0031803,0.00107449,0,3786420,0 SPACEBEE-20,1 46301U 20061AF  23042.20061943  .00107449  00000-0  31803-2 0  9991,2 46301  97.4253 117.7376 0000830 296.4592  63.6565 15.34458907134900,2020-061AF,46301,6840.665,93.844,463.098,461.962,1,2023/4/15
GENERATED VIA SPACETRACK.ORG API,18 SPCS,46301,SPACEBEE-20,PAYLOAD,U,20061AF,2023/2/11 17:20,254304,15.34573658,0.0000882,97.4252,118.2633,298.5149,61.6005,0,999,13498,0.0031935,0.001083,0,3787692,0 SPACEBEE-20,1 46301U 20061AF  23042.72229461  .00108300  00000-0  31935-2 0  9992,2 46301  97.4252 118.2633 0000882 298.5149  61.6005 15.34573658134985,2020-061AF,46301,6840.324,93.837,462.792,461.586,1,2023/4/16
GENERATED VIA SPACETRACK.ORG API,18 SPCS,46301,SPACEBEE-20,PAYLOAD,U,20061AF,2023/2/13 3:45,510208,15.34896129,0.0000948,97.4249,119.7067,293.7101,66.4042,0,999,13520,0.0032614,0.00111791,0,3788619,0 SPACEBEE-20,1 46301U 20061AF  23044.15669572  .00111791  00000-0  32614-2 0  9995,2 46301  97.4249 119.7067 0000948 293.7101  66.4042 15.34896129135207,2020-061AF,46301,6839.366,93.817,461.879,460.583,1,2023/4/17
GENERATED VIA SPACETRACK.ORG API,18 SPCS,46301,SPACEBEE-20,PAYLOAD,U,20061AF,2023/2/13 11:35,361760,15.34962152,0.0000966,97.425,120.0355,297.7846,62.33,0,999,13525,0.0032683,0.0011227,0,3789366,0 SPACEBEE-20,1 46301U 20061AF  23044.48265465  .00112270  00000-0  32683-2 0  9993,2 46301  97.4250 120.0355 0000966 297.7846  62.3300 15.34962152135251,2020-061AF,46301,6839.17,93.813,461.696,460.374,1,2023/4/18
GENERATED VIA SPACETRACK.ORG API,18 SPCS,46301,SPACEBEE-20,PAYLOAD,U,20061AF,2023/2/14 11:03,78208,15.35175551,0.0001155,97.4247,121.0204,296.1457,63.9667,0,999,13540,0.0033757,0.0011682,0,3791089,0 SPACEBEE-20,1 46301U 20061AF  23045.46044072  .00116820  00000-0  33757-2 0  9999,2 46301  97.4247 121.0204 0001155 296.1457  63.9667 15.35175551135403,2020-061AF,46301,6838.536,93.8,461.191,459.611,1,2023/4/19
GENERATED VIA SPACETRACK.ORG API,18 SPCS,46301,SPACEBEE-20,PAYLOAD,U,20061AF,2023/2/14 11:03,78208,15.35175551,0.0001155,97.4247,121.0204,296.1457,63.9667,0,999,13540,0.0033757,0.0011682,0,3791349,0 SPACEBEE-20,1 46301U 20061AF  23045.46044072  .00116820  00000-0  33757-2 0  9999,2 46301  97.4247 121.0204 0001155 296.1457  63.9667 15.35175551135403,2020-061AF,46301,6838.536,93.8,461.191,459.611,1,2023/4/20
GENERATED VIA SPACETRACK.ORG API,18 SPCS,46301,SPACEBEE-20,PAYLOAD,U,20061AF,2023/2/15 4:15,478368,15.35323803,0.0001242,97.4246,121.7422,291.6858,68.4253,0,999,13551,0.0029611,0.00102755,0,3792402,0 SPACEBEE-20,1 46301U 20061AF  23046.17740137  .00102755  00000-0  29611-2 0  9999,2 46301  97.4246 121.7422 0001242 291.6858  68.4253 15.35323803135511,2020-061AF,46301,6838.096,93.791,460.81,459.112,1,2023/4/21
GENERATED VIA SPACETRACK.ORG API,18 SPCS,46301,SPACEBEE-20,PAYLOAD,U,20061AF,2023/2/15 4:15,478368,15.35323803,0.0001242,97.4246,121.7422,291.6858,68.4253,0,999,13551,0.0029611,0.00102755,0,3793706,0 SPACEBEE-20,1 46301U 20061AF  23046.17740137  .00102755  00000-0  29611-2 0  9999,2 46301  97.4246 121.7422 0001242 291.6858  68.4253 15.35323803135511,2020-061AF,46301,6838.096,93.791,460.81,459.112,1,2023/4/22
GENERATED VIA SPACETRACK.ORG API,18 SPCS,46301,SPACEBEE-20,PAYLOAD,U,20061AF,2023/2/15 15:12,929056,15.35443062,0.0001287,97.4244,122.2024,294.3666,65.7443,0,999,13558,0.0042557,0.00149189,0,3794451,0 SPACEBEE-20,1 46301U 20061AF  23046.63361029  .00149189  00000-0  42557-2 0  9995,2 46301  97.4244 122.2024 0001287 294.3666  65.7443 15.35443062135587,2020-061AF,46301,6837.742,93.784,460.487,458.727,1,2023/4/23
GENERATED VIA SPACETRACK.ORG API,18 SPCS,46301,SPACEBEE-20,PAYLOAD,U,20061AF,2023/2/15 15:12,929056,15.35443062,0.0001287,97.4244,122.2024,294.3666,65.7443,0,999,13558,0.0042557,0.00149189,0,3795153,0 SPACEBEE-20,1 46301U 20061AF  23046.63361029  .00149189  00000-0  42557-2 0  9995,2 46301  97.4244 122.2024 0001287 294.3666  65.7443 15.35443062135587,2020-061AF,46301,6837.742,93.784,460.487,458.727,1,2023/4/24
GENERATED VIA SPACETRACK.ORG API,18 SPCS,46301,SPACEBEE-20,PAYLOAD,U,20061AF,2023/2/16 11:32,104128,15.35680049,0.000113,97.4259,123.057,295.8434,64.2693,0,999,13571,0.0038098,0.00134295,0,3797553,0 SPACEBEE-20,1 46301U 20061AF  23047.48075352  .00134295  00000-0  38098-2 0  9997,2 46301  97.4259 123.0570 0001130 295.8434  64.2693 15.35680049135718,2020-061AF,46301,6837.038,93.77,459.676,458.131,1,2023/4/25
